[{"OBJECT_NAME":"ONEWEB-0687","OBJECT_ID":"2024-188B","EPOCH":"2026-03-06T06:16:19.159104","MEAN_MOTION":13.17649796,"ECCENTRICITY":0.0001998,"INCLINATION":87.9134,"RA_OF_ASC_NODE":26.3239,"ARG_OF_PERICENTER":65.376,"MEAN_ANOMALY":294.7579,"EPHEMERIS_TYPE":0,"CLASSIFICATION_TYPE":"U","NORAD_CAT_ID":61595,"ELEMENT_SET_NO":999,"REV_AT_EPOCH":7234,"BSTAR":7.6601362e-5,"MEAN_MOTION_DOT":4.3e-7,"MEAN_MOTION_DDOT":0},{"OBJECT_NAME":"ONEWEB-0688","OBJECT_ID":"2024-188C","EPOCH":"2026-03-05T21:50:53.411424","MEAN_MOTION":13.17650023,"ECCENTRICITY":0.00013479,"INCLINATION":87.9132,"RA_OF_ASC_NODE":26.3931,"ARG_OF_PERICENTER":37.3256,"MEAN_ANOMALY":322.7969,"EPHEMERIS_TYPE":0,"CLASSIFICATION_TYPE":"U","NORAD_CAT_ID":61596,"ELEMENT_SET_NO":999,"REV_AT_EPOCH":7229,"BSTAR":-6.0300521e-5,"MEAN_MOTION_DOT":-1.1e-7,"MEAN_MOTION_DDOT":0},{"OBJECT_NAME":"ONEWEB-0689","OBJECT_ID":"2024-188D","EPOCH":"2026-03-05T21:14:19.565088","MEAN_MOTION":13.11416728,"ECCENTRICITY":0.00021341,"INCLINATION":87.8869,"RA_OF_ASC_NODE":41.5751,"ARG_OF_PERICENTER":77.6636,"MEAN_ANOMALY":282.4731,"EPHEMERIS_TYPE":0,"CLASSIFICATION_TYPE":"U","NORAD_CAT_ID":61597,"ELEMENT_SET_NO":999,"REV_AT_EPOCH":7091,"BSTAR":-0.0013792028,"MEAN_MOTION_DOT":-4.76e-6,"MEAN_MOTION_DDOT":0},{"OBJECT_NAME":"ONEWEB-0690","OBJECT_ID":"2024-188E","EPOCH":"2026-03-06T04:48:27.256608","MEAN_MOTION":13.11416872,"ECCENTRICITY":0.00015935,"INCLINATION":87.8863,"RA_OF_ASC_NODE":41.5328,"ARG_OF_PERICENTER":106.0541,"MEAN_ANOMALY":254.0762,"EPHEMERIS_TYPE":0,"CLASSIFICATION_TYPE":"U","NORAD_CAT_ID":61598,"ELEMENT_SET_NO":999,"REV_AT_EPOCH":7113,"BSTAR":-0.0010798507,"MEAN_MOTION_DOT":-3.7e-6,"MEAN_MOTION_DDOT":0},{"OBJECT_NAME":"ONEWEB-0691","OBJECT_ID":"2024-188F","EPOCH":"2026-03-06T04:41:07.509120","MEAN_MOTION":13.11416086,"ECCENTRICITY":0.00016707,"INCLINATION":87.8872,"RA_OF_ASC_NODE":41.4338,"ARG_OF_PERICENTER":70.3146,"MEAN_ANOMALY":289.8162,"EPHEMERIS_TYPE":0,"CLASSIFICATION_TYPE":"U","NORAD_CAT_ID":61599,"ELEMENT_SET_NO":999,"REV_AT_EPOCH":7098,"BSTAR":-0.0012383069,"MEAN_MOTION_DOT":-4.26e-6,"MEAN_MOTION_DDOT":0},{"OBJECT_NAME":"ONEWEB-0692","OBJECT_ID":"2024-188G","EPOCH":"2026-03-06T05:10:26.448960","MEAN_MOTION":13.11417298,"ECCENTRICITY":0.00027145,"INCLINATION":87.8852,"RA_OF_ASC_NODE":41.5627,"ARG_OF_PERICENTER":89.9183,"MEAN_ANOMALY":270.2256,"EPHEMERIS_TYPE":0,"CLASSIFICATION_TYPE":"U","NORAD_CAT_ID":61600,"ELEMENT_SET_NO":999,"REV_AT_EPOCH":7097,"BSTAR":0.00069666141,"MEAN_MOTION_DOT":2.6e-6,"MEAN_MOTION_DDOT":0},{"OBJECT_NAME":"ONEWEB-0693","OBJECT_ID":"2024-188H","EPOCH":"2026-03-06T07:14:37.813920","MEAN_MOTION":13.1765084,"ECCENTRICITY":0.00012732,"INCLINATION":87.9131,"RA_OF_ASC_NODE":26.3369,"ARG_OF_PERICENTER":106.3663,"MEAN_ANOMALY":253.7609,"EPHEMERIS_TYPE":0,"CLASSIFICATION_TYPE":"U","NORAD_CAT_ID":61601,"ELEMENT_SET_NO":999,"REV_AT_EPOCH":7233,"BSTAR":7.315938e-6,"MEAN_MOTION_DOT":1.6e-7,"MEAN_MOTION_DDOT":0},{"OBJECT_NAME":"ONEWEB-0695","OBJECT_ID":"2024-188J","EPOCH":"2026-03-05T21:16:46.762176","MEAN_MOTION":13.11418374,"ECCENTRICITY":0.00023696,"INCLINATION":87.8858,"RA_OF_ASC_NODE":41.619,"ARG_OF_PERICENTER":80.3571,"MEAN_ANOMALY":279.7825,"EPHEMERIS_TYPE":0,"CLASSIFICATION_TYPE":"U","NORAD_CAT_ID":61602,"ELEMENT_SET_NO":999,"REV_AT_EPOCH":7092,"BSTAR":-0.0012280254,"MEAN_MOTION_DOT":-4.23e-6,"MEAN_MOTION_DDOT":0},{"OBJECT_NAME":"ONEWEB-0697","OBJECT_ID":"2024-188K","EPOCH":"2026-03-06T05:22:39.271296","MEAN_MOTION":13.11415924,"ECCENTRICITY":0.00026015,"INCLINATION":87.8856,"RA_OF_ASC_NODE":41.5412,"ARG_OF_PERICENTER":90.1782,"MEAN_ANOMALY":269.9644,"EPHEMERIS_TYPE":0,"CLASSIFICATION_TYPE":"U","NORAD_CAT_ID":61603,"ELEMENT_SET_NO":999,"REV_AT_EPOCH":7095,"BSTAR":0.0013800251,"MEAN_MOTION_DOT":5.02e-6,"MEAN_MOTION_DDOT":0},{"OBJECT_NAME":"ONEWEB-0698","OBJECT_ID":"2024-188L","EPOCH":"2026-03-05T23:21:17.786592","MEAN_MOTION":13.11418239,"ECCENTRICITY":0.00025989,"INCLINATION":87.8851,"RA_OF_ASC_NODE":41.6072,"ARG_OF_PERICENTER":106.8583,"MEAN_ANOMALY":253.283,"EPHEMERIS_TYPE":0,"CLASSIFICATION_TYPE":"U","NORAD_CAT_ID":61604,"ELEMENT_SET_NO":999,"REV_AT_EPOCH":7094,"BSTAR":-0.00046093438,"MEAN_MOTION_DOT":-1.51e-6,"MEAN_MOTION_DDOT":0},{"OBJECT_NAME":"ONEWEB-0699","OBJECT_ID":"2024-188M","EPOCH":"2026-03-06T01:21:24.956640","MEAN_MOTION":13.1036988,"ECCENTRICITY":0.00024394,"INCLINATION":87.8772,"RA_OF_ASC_NODE":56.799,"ARG_OF_PERICENTER":95.4742,"MEAN_ANOMALY":264.6663,"EPHEMERIS_TYPE":0,"CLASSIFICATION_TYPE":"U","NORAD_CAT_ID":61605,"ELEMENT_SET_NO":999,"REV_AT_EPOCH":6980,"BSTAR":0.00021399839,"MEAN_MOTION_DOT":8.7e-7,"MEAN_MOTION_DDOT":0},{"OBJECT_NAME":"ONEWEB-0700","OBJECT_ID":"2024-188N","EPOCH":"2026-03-06T01:23:48.005664","MEAN_MOTION":13.10369401,"ECCENTRICITY":0.00025383,"INCLINATION":87.8783,"RA_OF_ASC_NODE":56.6928,"ARG_OF_PERICENTER":86.738,"MEAN_ANOMALY":273.4037,"EPHEMERIS_TYPE":0,"CLASSIFICATION_TYPE":"U","NORAD_CAT_ID":61606,"ELEMENT_SET_NO":999,"REV_AT_EPOCH":6979,"BSTAR":-0.00010269931,"MEAN_MOTION_DOT":-2.3e-7,"MEAN_MOTION_DDOT":0},{"OBJECT_NAME":"ONEWEB-0701","OBJECT_ID":"2024-188P","EPOCH":"2026-03-06T05:27:35.822016","MEAN_MOTION":13.10371318,"ECCENTRICITY":0.00026313,"INCLINATION":87.8774,"RA_OF_ASC_NODE":56.7644,"ARG_OF_PERICENTER":95.3839,"MEAN_ANOMALY":264.7588,"EPHEMERIS_TYPE":0,"CLASSIFICATION_TYPE":"U","NORAD_CAT_ID":61607,"ELEMENT_SET_NO":999,"REV_AT_EPOCH":6982,"BSTAR":-0.0019247053,"MEAN_MOTION_DOT":-6.59e-6,"MEAN_MOTION_DDOT":0},{"OBJECT_NAME":"ONEWEB-0702","OBJECT_ID":"2024-188Q","EPOCH":"2026-03-05T22:37:20.283168","MEAN_MOTION":13.11416375,"ECCENTRICITY":0.00028814,"INCLINATION":87.8868,"RA_OF_ASC_NODE":41.4999,"ARG_OF_PERICENTER":86.5771,"MEAN_ANOMALY":273.5687,"EPHEMERIS_TYPE":0,"CLASSIFICATION_TYPE":"U","NORAD_CAT_ID":61608,"ELEMENT_SET_NO":999,"REV_AT_EPOCH":7095,"BSTAR":-0.00037232638,"MEAN_MOTION_DOT":-1.19e-6,"MEAN_MOTION_DDOT":0},{"OBJECT_NAME":"ONEWEB-0704","OBJECT_ID":"2024-188R","EPOCH":"2026-03-05T23:41:01.189248","MEAN_MOTION":13.10370768,"ECCENTRICITY":0.00028513,"INCLINATION":87.8781,"RA_OF_ASC_NODE":56.7884,"ARG_OF_PERICENTER":87.3371,"MEAN_ANOMALY":272.8083,"EPHEMERIS_TYPE":0,"CLASSIFICATION_TYPE":"U","NORAD_CAT_ID":61609,"ELEMENT_SET_NO":999,"REV_AT_EPOCH":6977,"BSTAR":-0.00077245747,"MEAN_MOTION_DOT":-2.57e-6,"MEAN_MOTION_DDOT":0},{"OBJECT_NAME":"ONEWEB-0705","OBJECT_ID":"2024-188S","EPOCH":"2026-03-06T05:18:02.778336","MEAN_MOTION":13.10370207,"ECCENTRICITY":0.0002618,"INCLINATION":87.8775,"RA_OF_ASC_NODE":56.7551,"ARG_OF_PERICENTER":65.4573,"MEAN_ANOMALY":294.6827,"EPHEMERIS_TYPE":0,"CLASSIFICATION_TYPE":"U","NORAD_CAT_ID":61610,"ELEMENT_SET_NO":999,"REV_AT_EPOCH":6197,"BSTAR":-0.0013831748,"MEAN_MOTION_DOT":-4.7e-6,"MEAN_MOTION_DDOT":0},{"OBJECT_NAME":"ONEWEB-0706","OBJECT_ID":"2024-188T","EPOCH":"2026-03-06T04:56:32.992224","MEAN_MOTION":13.10369879,"ECCENTRICITY":0.00024617,"INCLINATION":87.8768,"RA_OF_ASC_NODE":56.7705,"ARG_OF_PERICENTER":84.1559,"MEAN_ANOMALY":275.9848,"EPHEMERIS_TYPE":0,"CLASSIFICATION_TYPE":"U","NORAD_CAT_ID":61611,"ELEMENT_SET_NO":999,"REV_AT_EPOCH":6989,"BSTAR":0.00068946311,"MEAN_MOTION_DOT":2.53e-6,"MEAN_MOTION_DDOT":0}]
