ONEWEB-0687             
1 61595U 24188B   26065.26133286  .00000043  00000+0  76601-4 0  9999
2 61595  87.9134  26.3239 0001998  65.3760 294.7579 13.17649796 72341
ONEWEB-0688             
1 61596U 24188C   26064.91034041 -.00000011  00000+0 -60301-4 0  9997
2 61596  87.9132  26.3931 0001347  37.3256 322.7969 13.17650023 72290
ONEWEB-0689             
1 61597U 24188D   26064.88494867 -.00000476  00000+0 -13792-2 0  9995
2 61597  87.8869  41.5751 0002134  77.6636 282.4731 13.11416728 70912
ONEWEB-0690             
1 61598U 24188E   26065.20031547 -.00000370  00000+0 -10799-2 0  9992
2 61598  87.8863  41.5328 0001593 106.0541 254.0762 13.11416872 71131
ONEWEB-0691             
1 61599U 24188F   26065.19522580 -.00000426  00000+0 -12383-2 0  9996
2 61599  87.8872  41.4338 0001670  70.3146 289.8162 13.11416086 70981
ONEWEB-0692             
1 61600U 24188G   26065.21558390  .00000260  00000+0  69666-3 0  9991
2 61600  87.8852  41.5627 0002714  89.9183 270.2256 13.11417298 70974
ONEWEB-0693             
1 61601U 24188H   26065.30182655  .00000016  00000+0  73159-5 0  9992
2 61601  87.9131  26.3369 0001273 106.3663 253.7609 13.17650840 72334
ONEWEB-0695             
1 61602U 24188J   26064.88665234 -.00000423  00000+0 -12280-2 0  9993
2 61602  87.8858  41.6190 0002369  80.3571 279.7825 13.11418374 70927
ONEWEB-0697             
1 61603U 24188K   26065.22406564  .00000502  00000+0  13800-2 0  9997
2 61603  87.8856  41.5412 0002601  90.1782 269.9644 13.11415924 70955
ONEWEB-0698             
1 61604U 24188L   26064.97312253 -.00000151  00000+0 -46093-3 0  9993
2 61604  87.8851  41.6072 0002598 106.8583 253.2830 13.11418239 70947
ONEWEB-0699             
1 61605U 24188M   26065.05653885  .00000087  00000+0  21400-3 0  9994
2 61605  87.8772  56.7990 0002439  95.4742 264.6663 13.10369880 69809
ONEWEB-0700             
1 61606U 24188N   26065.05819451 -.00000023  00000+0 -10270-3 0  9993
2 61606  87.8783  56.6928 0002538  86.7380 273.4037 13.10369401 69793
ONEWEB-0701             
1 61607U 24188P   26065.22749794 -.00000659  00000+0 -19247-2 0  9992
2 61607  87.8774  56.7644 0002631  95.3839 264.7588 13.10371318 69827
ONEWEB-0702             
1 61608U 24188Q   26064.94259587 -.00000119  00000+0 -37233-3 0  9994
2 61608  87.8868  41.4999 0002881  86.5771 273.5687 13.11416375 70958
ONEWEB-0704             
1 61609U 24188R   26064.98681932 -.00000257  00000+0 -77246-3 0  9993
2 61609  87.8781  56.7884 0002851  87.3371 272.8083 13.10370768 69771
ONEWEB-0705             
1 61610U 24188S   26065.22086549 -.00000470  00000+0 -13832-2 0  9993
2 61610  87.8775  56.7551 0002618  65.4573 294.6827 13.10370207 61979
ONEWEB-0706             
1 61611U 24188T   26065.20593741  .00000253  00000+0  68946-3 0  9993
2 61611  87.8768  56.7705 0002461  84.1559 275.9848 13.10369879 69898
